start=new Date('2023-04-01T00:00:00.000Z').valueOf();
sats=[{"FILE":"3876500","BSTAR":"0.00006807400000","MEAN_MOTION_DDOT":"0.0000000000000","MEAN_MOTION_DOT":"0.00000717","CENTER_NAME":"EARTH","SEMIMAJOR_AXIS":"6937.181","REV_AT_EPOCH":"1457","OBJECT_TYPE":"PAYLOAD","PERIAPSIS":"558.674","DECAY_DATE":null,"COUNTRY_CODE":"US","LAUNCH_DATE":"2022-12-28","OBJECT_NAME":"STARLINK-5407","EPHEMERIS_TYPE":"0","INCLINATION":"42.9985","MEAN_ANOMALY":"79.3394","OBJECT_ID":"2022-177AQ","APOAPSIS":"559.417","NORAD_CAT_ID":"54858","MEAN_MOTION":"15.02547699","MEAN_ELEMENT_THEORY":"SGP4","ECCENTRICITY":"0.00005360","GP_ID":"229205722","TIME_SYSTEM":"UTC","EPOCH":"2023-03-31T17:33:02.210112","ELEMENT_SET_NO":"999","ARG_OF_PERICENTER":"280.7388","TLE_LINE2":"2 54858  42.9985 195.9419 0000536 280.7388  79.3394 15.02547699 14577","RCS_SIZE":"LARGE","PERIOD":"95.837","CLASSIFICATION_TYPE":"U","TLE_LINE1":"1 54858U 22177AQ  23090.73127558  .00000717  00000-0  68074-4 0  9995","REF_FRAME":"TEME","SITE":"AFETR","RA_OF_ASC_NODE":"195.9419"},{"TLE_LINE1":"1 54859U 22177AR  23090.78997646  .00001327  00000-0  11321-3 0  9994","REF_FRAME":"TEME","SITE":"AFETR","RA_OF_ASC_NODE":"195.5213","RCS_SIZE":"LARGE","PERIOD":"95.837","CLASSIFICATION_TYPE":"U","TIME_SYSTEM":"UTC","EPOCH":"2023-03-31T18:57:33.966144","ELEMENT_SET_NO":"999","TLE_LINE2":"2 54859  43.0019 195.5213 0001601 269.7595  90.3063 15.02556579 14581","ARG_OF_PERICENTER":"269.7595","MEAN_MOTION":"15.02556579","MEAN_ELEMENT_THEORY":"SGP4","ECCENTRICITY":"0.00016010","GP_ID":"229205846","APOAPSIS":"560.129","NORAD_CAT_ID":"54859","DECAY_DATE":null,"COUNTRY_CODE":"US","LAUNCH_DATE":"2022-12-28","OBJECT_NAME":"STARLINK-5409","INCLINATION":"43.0019","EPHEMERIS_TYPE":"0","MEAN_ANOMALY":"90.3063","OBJECT_ID":"2022-177AR","REV_AT_EPOCH":"1458","OBJECT_TYPE":"PAYLOAD","PERIAPSIS":"557.908","FILE":"3876509","BSTAR":"0.00011321000000","MEAN_MOTION_DDOT":"0.0000000000000","MEAN_MOTION_DOT":"0.00001327","CENTER_NAME":"EARTH","SEMIMAJOR_AXIS":"6937.153"},{"NORAD_CAT_ID":"54860","APOAPSIS":"560.084","OBJECT_ID":"2022-177AS","INCLINATION":"43.0016","EPHEMERIS_TYPE":"0","MEAN_ANOMALY":"86.3782","OBJECT_NAME":"STARLINK-5406","COUNTRY_CODE":"US","LAUNCH_DATE":"2022-12-28","DECAY_DATE":null,"PERIAPSIS":"558.031","OBJECT_TYPE":"PAYLOAD","REV_AT_EPOCH":"1455","CENTER_NAME":"EARTH","SEMIMAJOR_AXIS":"6937.192","MEAN_MOTION_DOT":"0.00001626","BSTAR":"0.00013540000000","MEAN_MOTION_DDOT":"0.0000000000000","FILE":"3876229","RA_OF_ASC_NODE":"196.5620","SITE":"AFETR","REF_FRAME":"TEME","TLE_LINE1":"1 54860U 22177AS  23090.58500136  .00001626  00000-0  13540-3 0  9995","CLASSIFICATION_TYPE":"U","PERIOD":"95.837","RCS_SIZE":"LARGE","ARG_OF_PERICENTER":"273.6891","TLE_LINE2":"2 54860  43.0016 196.5620 0001480 273.6891  86.3782 15.02543904 14559","TIME_SYSTEM":"UTC","ELEMENT_SET_NO":"999","EPOCH":"2023-03-31T14:02:24.117504","ECCENTRICITY":"0.00014800","GP_ID":"229198653","MEAN_ELEMENT_THEORY":"SGP4","MEAN_MOTION":"15.02543904"},{"APOAPSIS":"560.011","NORAD_CAT_ID":"54861","MEAN_ANOMALY":"77.5224","INCLINATION":"43.0025","OBJECT_NAME":"STARLINK-5400","EPHEMERIS_TYPE":"0","OBJECT_ID":"2022-177AT","DECAY_DATE":null,"LAUNCH_DATE":"2022-12-28","COUNTRY_CODE":"US","PERIAPSIS":"558.095","REV_AT_EPOCH":"1457","OBJECT_TYPE":"PAYLOAD","MEAN_MOTION_DOT":"0.00000325","SEMIMAJOR_AXIS":"6937.188","CENTER_NAME":"EARTH","FILE":"3876526","MEAN_MOTION_DDOT":"0.0000000000000","BSTAR":"0.00003909700000","SITE":"AFETR","RA_OF_ASC_NODE":"195.9598","TLE_LINE1":"1 54861U 22177AT  23090.73349853  .00000325  00000-0  39097-4 0  9991","REF_FRAME":"TEME","PERIOD":"95.837","CLASSIFICATION_TYPE":"U","RCS_SIZE":"LARGE","ARG_OF_PERICENTER":"282.5464","TLE_LINE2":"2 54861  43.0025 195.9598 0001381 282.5464  77.5224 15.02545380 14577","ELEMENT_SET_NO":"999","EPOCH":"2023-03-31T17:36:14.272992","TIME_SYSTEM":"UTC","MEAN_ELEMENT_THEORY":"SGP4","GP_ID":"229206027","ECCENTRICITY":"0.00013810","MEAN_MOTION":"15.02545380"},{"RCS_SIZE":"LARGE","PERIOD":"95.837","CLASSIFICATION_TYPE":"U","TLE_LINE1":"1 54862U 22177AU  23090.55848231  .00000012  00000-0  15973-4 0  9996","REF_FRAME":"TEME","SITE":"AFETR","RA_OF_ASC_NODE":"197.2424","MEAN_MOTION":"15.02551655","MEAN_ELEMENT_THEORY":"SGP4","GP_ID":"229198719","ECCENTRICITY":"0.00015370","EPOCH":"2023-03-31T13:24:12.871584","ELEMENT_SET_NO":"999","TIME_SYSTEM":"UTC","TLE_LINE2":"2 54862  43.0036 197.2424 0001537 288.7770  71.2905 15.02551655 14540","ARG_OF_PERICENTER":"288.7770","DECAY_DATE":null,"COUNTRY_CODE":"US","LAUNCH_DATE":"2022-12-28","EPHEMERIS_TYPE":"0","INCLINATION":"43.0036","OBJECT_NAME":"STARLINK-5403","MEAN_ANOMALY":"71.2905","OBJECT_ID":"2022-177AU","APOAPSIS":"560.100","NORAD_CAT_ID":"54862","FILE":"3876233","MEAN_MOTION_DDOT":"0.0000000000000","BSTAR":"0.00001597300000","MEAN_MOTION_DOT":"0.00000012","SEMIMAJOR_AXIS":"6937.168","CENTER_NAME":"EARTH","REV_AT_EPOCH":"1454","OBJECT_TYPE":"PAYLOAD","PERIAPSIS":"557.967"},{"CENTER_NAME":"EARTH","SEMIMAJOR_AXIS":"6937.166","MEAN_MOTION_DOT":"0.00002763","BSTAR":"0.00021942000000","MEAN_MOTION_DDOT":"0.0000000000000","FILE":"3876386","PERIAPSIS":"557.815","OBJECT_TYPE":"PAYLOAD","REV_AT_EPOCH":"1456","OBJECT_ID":"2022-177AV","EPHEMERIS_TYPE":"0","OBJECT_NAME":"STARLINK-5405","INCLINATION":"43.0051","MEAN_ANOMALY":"72.9578","COUNTRY_CODE":"US","LAUNCH_DATE":"2022-12-28","DECAY_DATE":null,"NORAD_CAT_ID":"54863","APOAPSIS":"560.247","GP_ID":"229202535","ECCENTRICITY":"0.00017530","MEAN_ELEMENT_THEORY":"SGP4","MEAN_MOTION":"15.02552508","ARG_OF_PERICENTER":"287.1072","TLE_LINE2":"2 54863  43.0051 196.2640 0001753 287.1072  72.9578 15.02552508 14569","TIME_SYSTEM":"UTC","EPOCH":"2023-03-31T15:49:18.414624","ELEMENT_SET_NO":"999","CLASSIFICATION_TYPE":"U","PERIOD":"95.837","RCS_SIZE":"LARGE","RA_OF_ASC_NODE":"196.2640","SITE":"AFETR","REF_FRAME":"TEME","TLE_LINE1":"1 54863U 22177AV  23090.65924091  .00002763  00000-0  21942-3 0  9994"},{"PERIOD":"95.838","CLASSIFICATION_TYPE":"U","RCS_SIZE":"LARGE","SITE":"AFETR","RA_OF_ASC_NODE":"196.1627","TLE_LINE1":"1 54864U 22177AW  23090.64593305 -.00000066  00000-0  10198-4 0  9991","REF_FRAME":"TEME","MEAN_ELEMENT_THEORY":"SGP4","ECCENTRICITY":"0.00011810","GP_ID":"229199151","MEAN_MOTION":"15.02543262","TLE_LINE2":"2 54864  43.0028 196.1627 0001181 278.7072  81.3637 15.02543262 14432","ARG_OF_PERICENTER":"278.7072","TIME_SYSTEM":"UTC","EPOCH":"2023-03-31T15:30:08.615520","ELEMENT_SET_NO":"999","INCLINATION":"43.0028","OBJECT_NAME":"STARLINK-5359","MEAN_ANOMALY":"81.3637","EPHEMERIS_TYPE":"0","OBJECT_ID":"2022-177AW","DECAY_DATE":null,"COUNTRY_CODE":"US","LAUNCH_DATE":"2022-12-28","APOAPSIS":"559.878","NORAD_CAT_ID":"54864","MEAN_MOTION_DOT":"-0.00000066","CENTER_NAME":"EARTH","SEMIMAJOR_AXIS":"6937.194","FILE":"3876250","BSTAR":"0.00001019800000","MEAN_MOTION_DDOT":"0.0000000000000","PERIAPSIS":"558.240","REV_AT_EPOCH":"1443","OBJECT_TYPE":"PAYLOAD"},{"REV_AT_EPOCH":"1444","OBJECT_TYPE":"PAYLOAD","PERIAPSIS":"558.537","FILE":"3876539","MEAN_MOTION_DDOT":"0.0000000000000","BSTAR":"0.00019783000000","MEAN_MOTION_DOT":"0.00002471","SEMIMAJOR_AXIS":"6937.185","CENTER_NAME":"EARTH","APOAPSIS":"559.563","NORAD_CAT_ID":"54865","DECAY_DATE":null,"COUNTRY_CODE":"US","LAUNCH_DATE":"2022-12-28","OBJECT_NAME":"STARLINK-5411","INCLINATION":"43.0013","EPHEMERIS_TYPE":"0","MEAN_ANOMALY":"78.8540","OBJECT_ID":"2022-177AX","EPOCH":"2023-03-31T15:54:06.886944","ELEMENT_SET_NO":"999","TIME_SYSTEM":"UTC","ARG_OF_PERICENTER":"281.2220","TLE_LINE2":"2 54865  43.0013 196.2887 0000739 281.2220  78.8540 15.02546212 14441","MEAN_MOTION":"15.02546212","MEAN_ELEMENT_THEORY":"SGP4","GP_ID":"229206688","ECCENTRICITY":"0.00007390","TLE_LINE1":"1 54865U 22177AX  23090.66257971  .00002471  00000-0  19783-3 0  9999","REF_FRAME":"TEME","SITE":"AFETR","RA_OF_ASC_NODE":"196.2887","RCS_SIZE":"LARGE","PERIOD":"95.837","CLASSIFICATION_TYPE":"U"},{"ELEMENT_SET_NO":"999","EPOCH":"2023-03-31T15:18:57.036960","TIME_SYSTEM":"UTC","TLE_LINE2":"2 54866  43.0015 196.1034 0001496 256.8798 103.1877 15.02543989 14562","ARG_OF_PERICENTER":"256.8798","MEAN_MOTION":"15.02543989","GP_ID":"229198923","ECCENTRICITY":"0.00014960","MEAN_ELEMENT_THEORY":"SGP4","REF_FRAME":"TEME","TLE_LINE1":"1 54866U 22177AY  23090.63816015  .00001456  00000-0  12281-3 0  9995","RA_OF_ASC_NODE":"196.1034","SITE":"AFETR","RCS_SIZE":"LARGE","CLASSIFICATION_TYPE":"U","PERIOD":"95.837","OBJECT_TYPE":"PAYLOAD","REV_AT_EPOCH":"1456","PERIAPSIS":"558.019","MEAN_MOTION_DDOT":"0.0000000000000","BSTAR":"0.00012281000000","FILE":"3876243","SEMIMAJOR_AXIS":"6937.192","CENTER_NAME":"EARTH","MEAN_MOTION_DOT":"0.00001456","NORAD_CAT_ID":"54866","APOAPSIS":"560.095","COUNTRY_CODE":"US","LAUNCH_DATE":"2022-12-28","DECAY_DATE":null,"OBJECT_ID":"2022-177AY","MEAN_ANOMALY":"103.1877","OBJECT_NAME":"STARLINK-5398","INCLINATION":"43.0015","EPHEMERIS_TYPE":"0"},{"APOAPSIS":"559.913","NORAD_CAT_ID":"54867","DECAY_DATE":null,"LAUNCH_DATE":"2022-12-28","COUNTRY_CODE":"US","INCLINATION":"43.0023","MEAN_ANOMALY":"91.2997","OBJECT_NAME":"STARLINK-5396","EPHEMERIS_TYPE":"0","OBJECT_ID":"2022-177AZ","REV_AT_EPOCH":"1444","OBJECT_TYPE":"PAYLOAD","PERIAPSIS":"558.112","FILE":"3876263","MEAN_MOTION_DDOT":"0.0000000000000","BSTAR":"0.00008680800000","MEAN_MOTION_DOT":"0.00000970","SEMIMAJOR_AXIS":"6937.148","CENTER_NAME":"EARTH","TLE_LINE1":"1 54867U 22177AZ  23090.64925095  .00000970  00000-0  86808-4 0  9993","REF_FRAME":"TEME","SITE":"AFETR","RA_OF_ASC_NODE":"196.1851","RCS_SIZE":"LARGE","PERIOD":"95.837","CLASSIFICATION_TYPE":"U","EPOCH":"2023-03-31T15:34:55.282080","ELEMENT_SET_NO":"999","TIME_SYSTEM":"UTC","TLE_LINE2":"2 54867  43.0023 196.1851 0001298 268.7697  91.2997 15.02558316 14446","ARG_OF_PERICENTER":"268.7697","MEAN_MOTION":"15.02558316","MEAN_ELEMENT_THEORY":"SGP4","ECCENTRICITY":"0.00012980","GP_ID":"229199702"}];
